start=new Date('2023-03-25T00:00:00.000Z').valueOf();
sats=[{"COUNTRY_CODE":"US","SEMIMAJOR_AXIS":"6925.076","RCS_SIZE":"LARGE","OBJECT_ID":"2021-027AW","OBJECT_TYPE":"PAYLOAD","ECCENTRICITY":"0.00014810","EPOCH":"2023-03-24T22:31:00.458400","APOAPSIS":"547.966","RA_OF_ASC_NODE":"343.2895","FILE":"3870109","REV_AT_EPOCH":"10952","MEAN_MOTION_DDOT":"0.0000000000000","NORAD_CAT_ID":"48136","REF_FRAME":"TEME","CLASSIFICATION_TYPE":"U","CENTER_NAME":"EARTH","TLE_LINE1":"1 48136U 21027AW  23083.93819975  .00037495  00000-0  25167-2 0  9992","MEAN_ELEMENT_THEORY":"SGP4","ELEMENT_SET_NO":"999","EPHEMERIS_TYPE":"0","MEAN_MOTION":"15.06489047","BSTAR":"0.00251670000000","OBJECT_NAME":"STARLINK-2479","GP_ID":"228822214","INCLINATION":"53.0554","SITE":"AFETR","LAUNCH_DATE":"2021-04-07","ARG_OF_PERICENTER":"85.3078","DECAY_DATE":null,"PERIOD":"95.586","MEAN_ANOMALY":"274.8080","TLE_LINE2":"2 48136  53.0554 343.2895 0001481  85.3078 274.8080 15.06489047109525","MEAN_MOTION_DOT":"0.00037495","PERIAPSIS":"545.915","TIME_SYSTEM":"UTC"},{"REF_FRAME":"TEME","NORAD_CAT_ID":"48137","MEAN_MOTION_DDOT":"0.0000000000000","REV_AT_EPOCH":"10979","FILE":"3870109","RA_OF_ASC_NODE":"323.4556","APOAPSIS":"547.585","EPOCH":"2023-03-24T21:31:20.731872","ECCENTRICITY":"0.00009810","OBJECT_TYPE":"PAYLOAD","OBJECT_ID":"2021-027AX","RCS_SIZE":"LARGE","SEMIMAJOR_AXIS":"6925.041","COUNTRY_CODE":"US","MEAN_MOTION":"15.06500383","EPHEMERIS_TYPE":"0","ELEMENT_SET_NO":"999","MEAN_ELEMENT_THEORY":"SGP4","TLE_LINE1":"1 48137U 21027AX  23083.89676773  .00039586  00000-0  26544-2 0  9998","CENTER_NAME":"EARTH","CLASSIFICATION_TYPE":"U","ARG_OF_PERICENTER":"121.8193","DECAY_DATE":null,"LAUNCH_DATE":"2021-04-07","SITE":"AFETR","INCLINATION":"53.0535","GP_ID":"228820968","OBJECT_NAME":"STARLINK-2480","BSTAR":"0.00265440000000","TIME_SYSTEM":"UTC","PERIAPSIS":"546.227","MEAN_MOTION_DOT":"0.00039586","TLE_LINE2":"2 48137  53.0535 323.4556 0000981 121.8193 238.2892 15.06500383109798","MEAN_ANOMALY":"238.2892","PERIOD":"95.586"},{"EPHEMERIS_TYPE":"0","MEAN_MOTION":"15.06504147","TLE_LINE1":"1 48138U 21027AY  23083.92440993  .00045847  00000-0  30682-2 0  9991","ELEMENT_SET_NO":"999","MEAN_ELEMENT_THEORY":"SGP4","CENTER_NAME":"EARTH","CLASSIFICATION_TYPE":"U","MEAN_MOTION_DDOT":"0.0000000000000","REV_AT_EPOCH":"10952","NORAD_CAT_ID":"48138","REF_FRAME":"TEME","RA_OF_ASC_NODE":"343.3611","APOAPSIS":"547.589","FILE":"3870109","OBJECT_ID":"2021-027AY","OBJECT_TYPE":"PAYLOAD","ECCENTRICITY":"0.00010030","EPOCH":"2023-03-24T22:11:09.017952","COUNTRY_CODE":"US","RCS_SIZE":"LARGE","SEMIMAJOR_AXIS":"6925.029","TIME_SYSTEM":"UTC","MEAN_ANOMALY":"244.8345","TLE_LINE2":"2 48138  53.0552 343.3611 0001003 115.2748 244.8345 15.06504147109529","PERIAPSIS":"546.200","MEAN_MOTION_DOT":"0.00045847","PERIOD":"95.586","ARG_OF_PERICENTER":"115.2748","DECAY_DATE":null,"SITE":"AFETR","LAUNCH_DATE":"2021-04-07","BSTAR":"0.00306820000000","OBJECT_NAME":"STARLINK-2481","GP_ID":"228821718","INCLINATION":"53.0552"},{"MEAN_MOTION":"15.06478981","EPHEMERIS_TYPE":"0","TLE_LINE1":"1 48139U 21027AZ  23083.91520017  .00034823  00000-0  23402-2 0  9991","MEAN_ELEMENT_THEORY":"SGP4","ELEMENT_SET_NO":"999","CENTER_NAME":"EARTH","CLASSIFICATION_TYPE":"U","REV_AT_EPOCH":"10980","MEAN_MOTION_DDOT":"0.0000000000000","REF_FRAME":"TEME","NORAD_CAT_ID":"48139","APOAPSIS":"547.313","RA_OF_ASC_NODE":"323.4026","FILE":"3870109","OBJECT_TYPE":"PAYLOAD","OBJECT_ID":"2021-027AZ","EPOCH":"2023-03-24T21:57:53.294688","ECCENTRICITY":"0.00004930","COUNTRY_CODE":"US","RCS_SIZE":"LARGE","SEMIMAJOR_AXIS":"6925.107","TIME_SYSTEM":"UTC","MEAN_ANOMALY":"230.6246","PERIAPSIS":"546.630","MEAN_MOTION_DOT":"0.00034823","TLE_LINE2":"2 48139  53.0532 323.4026 0000493 129.4787 230.6246 15.06478981109809","PERIOD":"95.587","ARG_OF_PERICENTER":"129.4787","DECAY_DATE":null,"LAUNCH_DATE":"2021-04-07","SITE":"AFETR","BSTAR":"0.00234020000000","INCLINATION":"53.0532","GP_ID":"228821970","OBJECT_NAME":"STARLINK-2482"},{"COUNTRY_CODE":"US","RCS_SIZE":"LARGE","SEMIMAJOR_AXIS":"6925.068","OBJECT_TYPE":"PAYLOAD","OBJECT_ID":"2021-027BA","EPOCH":"2023-03-24T21:11:25.200384","ECCENTRICITY":"0.00009880","APOAPSIS":"547.617","RA_OF_ASC_NODE":"343.5465","FILE":"3870109","REV_AT_EPOCH":"10951","MEAN_MOTION_DDOT":"0.0000000000000","REF_FRAME":"TEME","NORAD_CAT_ID":"48140","CLASSIFICATION_TYPE":"U","CENTER_NAME":"EARTH","TLE_LINE1":"1 48140U 21027BA  23083.88293056  .00046330  00000-0  31012-2 0  9991","MEAN_ELEMENT_THEORY":"SGP4","ELEMENT_SET_NO":"999","MEAN_MOTION":"15.06491648","EPHEMERIS_TYPE":"0","BSTAR":"0.00310120000000","GP_ID":"228822714","OBJECT_NAME":"STARLINK-2483","INCLINATION":"53.0536","LAUNCH_DATE":"2021-04-07","SITE":"AFETR","ARG_OF_PERICENTER":"79.8774","DECAY_DATE":null,"PERIOD":"95.586","MEAN_ANOMALY":"280.2327","PERIAPSIS":"546.248","MEAN_MOTION_DOT":"0.00046330","TLE_LINE2":"2 48140  53.0536 343.5465 0000988  79.8774 280.2327 15.06491648109512","TIME_SYSTEM":"UTC"},{"DECAY_DATE":null,"ARG_OF_PERICENTER":"68.4809","LAUNCH_DATE":"2021-04-07","SITE":"AFETR","OBJECT_NAME":"STARLINK-2484","GP_ID":"228821468","INCLINATION":"53.0538","BSTAR":"0.00286650000000","TIME_SYSTEM":"UTC","PERIAPSIS":"546.205","MEAN_MOTION_DOT":"0.00042784","TLE_LINE2":"2 48141  53.0538 343.4482 0001038  68.4809 291.6291 15.06494550109536","MEAN_ANOMALY":"291.6291","PERIOD":"95.586","REF_FRAME":"TEME","NORAD_CAT_ID":"48141","REV_AT_EPOCH":"10953","MEAN_MOTION_DDOT":"0.0000000000000","FILE":"3870109","RA_OF_ASC_NODE":"343.4482","APOAPSIS":"547.643","EPOCH":"2023-03-24T21:44:37.224096","ECCENTRICITY":"0.00010380","OBJECT_TYPE":"PAYLOAD","OBJECT_ID":"2021-027BB","RCS_SIZE":"LARGE","SEMIMAJOR_AXIS":"6925.059","COUNTRY_CODE":"US","MEAN_MOTION":"15.06494550","EPHEMERIS_TYPE":"0","MEAN_ELEMENT_THEORY":"SGP4","ELEMENT_SET_NO":"999","TLE_LINE1":"1 48141U 21027BB  23083.90598639  .00042784  00000-0  28665-2 0  9999","CENTER_NAME":"EARTH","CLASSIFICATION_TYPE":"U"},{"MEAN_ELEMENT_THEORY":"SGP4","ELEMENT_SET_NO":"999","TLE_LINE1":"1 48142U 21027BC  23083.91152260  .00035306  00000-0  23720-2 0  9996","MEAN_MOTION":"15.06482739","EPHEMERIS_TYPE":"0","CLASSIFICATION_TYPE":"U","CENTER_NAME":"EARTH","FILE":"3870109","APOAPSIS":"547.177","RA_OF_ASC_NODE":"323.4240","REF_FRAME":"TEME","NORAD_CAT_ID":"48142","MEAN_MOTION_DDOT":"0.0000000000000","REV_AT_EPOCH":"10980","SEMIMAJOR_AXIS":"6925.095","RCS_SIZE":"LARGE","COUNTRY_CODE":"US","EPOCH":"2023-03-24T21:52:35.552640","ECCENTRICITY":"0.00003140","OBJECT_TYPE":"PAYLOAD","OBJECT_ID":"2021-027BC","TIME_SYSTEM":"UTC","PERIOD":"95.587","PERIAPSIS":"546.743","MEAN_MOTION_DOT":"0.00035306","TLE_LINE2":"2 48142  53.0520 323.4240 0000314  71.3298 288.7725 15.06482739109804","MEAN_ANOMALY":"288.7725","DECAY_DATE":null,"ARG_OF_PERICENTER":"71.3298","GP_ID":"228821219","OBJECT_NAME":"STARLINK-2485","INCLINATION":"53.0520","BSTAR":"0.00237200000000","LAUNCH_DATE":"2021-04-07","SITE":"AFETR"},{"MEAN_MOTION":"15.06448658","EPHEMERIS_TYPE":"0","MEAN_ELEMENT_THEORY":"SGP4","ELEMENT_SET_NO":"999","TLE_LINE1":"1 48143U 21027BD  23083.82810252  .00024574  00000-0  16607-2 0  9990","CENTER_NAME":"EARTH","CLASSIFICATION_TYPE":"U","NORAD_CAT_ID":"48143","REF_FRAME":"TEME","MEAN_MOTION_DDOT":"0.0000000000000","REV_AT_EPOCH":"11041","FILE":"3870109","RA_OF_ASC_NODE":"278.7920","APOAPSIS":"547.938","ECCENTRICITY":"0.00012620","EPOCH":"2023-03-24T19:52:28.057728","OBJECT_ID":"2021-027BD","OBJECT_TYPE":"PAYLOAD","RCS_SIZE":"LARGE","SEMIMAJOR_AXIS":"6925.199","COUNTRY_CODE":"US","TIME_SYSTEM":"UTC","TLE_LINE2":"2 48143  53.0534 278.7920 0001262  96.1609 263.9524 15.06448658110414","PERIAPSIS":"546.190","MEAN_MOTION_DOT":"0.00024574","MEAN_ANOMALY":"263.9524","PERIOD":"95.589","ARG_OF_PERICENTER":"96.1609","DECAY_DATE":null,"SITE":"AFETR","LAUNCH_DATE":"2021-04-07","GP_ID":"228822470","INCLINATION":"53.0534","OBJECT_NAME":"STARLINK-2486","BSTAR":"0.00166070000000"},{"MEAN_MOTION":"15.06422682","EPHEMERIS_TYPE":"0","MEAN_ELEMENT_THEORY":"SGP4","ELEMENT_SET_NO":"999","TLE_LINE1":"1 48144U 21027BE  23083.91886113  .00002356  00000-0  17690-3 0  9998","CENTER_NAME":"EARTH","CLASSIFICATION_TYPE":"U","NORAD_CAT_ID":"48144","REF_FRAME":"TEME","REV_AT_EPOCH":"10979","MEAN_MOTION_DDOT":"0.0000000000000","FILE":"3870109","APOAPSIS":"548.080","RA_OF_ASC_NODE":"323.3916","ECCENTRICITY":"0.00013520","EPOCH":"2023-03-24T22:03:09.601632","OBJECT_ID":"2021-027BE","OBJECT_TYPE":"PAYLOAD","RCS_SIZE":"LARGE","SEMIMAJOR_AXIS":"6925.279","COUNTRY_CODE":"US","TIME_SYSTEM":"UTC","TLE_LINE2":"2 48144  53.0552 323.3916 0001352  63.5239 296.5888 15.06422682109797","PERIAPSIS":"546.208","MEAN_MOTION_DOT":"0.00002356","MEAN_ANOMALY":"296.5888","PERIOD":"95.591","ARG_OF_PERICENTER":"63.5239","DECAY_DATE":null,"SITE":"AFETR","LAUNCH_DATE":"2021-04-07","GP_ID":"228822215","INCLINATION":"53.0552","OBJECT_NAME":"STARLINK-2487","BSTAR":"0.00017690000000"},{"TIME_SYSTEM":"UTC","PERIOD":"95.589","MEAN_ANOMALY":"297.5303","TLE_LINE2":"2 48145  53.0514 323.3698 0001183  62.5806 297.5303 15.06451583109801","PERIAPSIS":"546.236","MEAN_MOTION_DOT":"0.00038072","ARG_OF_PERICENTER":"62.5806","DECAY_DATE":null,"BSTAR":"0.00255750000000","GP_ID":"228820969","INCLINATION":"53.0514","OBJECT_NAME":"STARLINK-2488","SITE":"AFETR","LAUNCH_DATE":"2021-04-07","TLE_LINE1":"1 48145U 21027BF  23083.92257357  .00038072  00000-0  25575-2 0  9996","MEAN_ELEMENT_THEORY":"SGP4","ELEMENT_SET_NO":"999","MEAN_MOTION":"15.06451583","EPHEMERIS_TYPE":"0","CLASSIFICATION_TYPE":"U","CENTER_NAME":"EARTH","RA_OF_ASC_NODE":"323.3698","APOAPSIS":"547.875","FILE":"3870109","MEAN_MOTION_DDOT":"0.0000000000000","REV_AT_EPOCH":"10980","NORAD_CAT_ID":"48145","REF_FRAME":"TEME","COUNTRY_CODE":"US","SEMIMAJOR_AXIS":"6925.190","RCS_SIZE":"LARGE","OBJECT_ID":"2021-027BF","OBJECT_TYPE":"PAYLOAD","ECCENTRICITY":"0.00011830","EPOCH":"2023-03-24T22:08:30.356448"}];
